[{"OBJECT_NAME":"JILIN-1 GAOFEN 3A","OBJECT_ID":"2019-032C","EPOCH":"2026-03-09T17:53:24.364896","MEAN_MOTION":15.3027131,"ECCENTRICITY":0.00026181,"INCLINATION":44.9746,"RA_OF_ASC_NODE":183.2861,"ARG_OF_PERICENTER":111.29,"MEAN_ANOMALY":248.8263,"EPHEMERIS_TYPE":0,"CLASSIFICATION_TYPE":"U","NORAD_CAT_ID":44312,"ELEMENT_SET_NO":999,"REV_AT_EPOCH":37259,"BSTAR":0.00055381133,"MEAN_MOTION_DOT":0.00016264,"MEAN_MOTION_DDOT":0},{"OBJECT_NAME":"STARLINK-35953","OBJECT_ID":"2025-271W","EPOCH":"2026-03-09T11:24:41.245632","MEAN_MOTION":15.30184966,"ECCENTRICITY":0.00014403,"INCLINATION":53.1578,"RA_OF_ASC_NODE":140.9441,"ARG_OF_PERICENTER":79.2591,"MEAN_ANOMALY":280.8572,"EPHEMERIS_TYPE":0,"CLASSIFICATION_TYPE":"U","NORAD_CAT_ID":66637,"ELEMENT_SET_NO":999,"REV_AT_EPOCH":1753,"BSTAR":0.00032775245,"MEAN_MOTION_DOT":9.356e-5,"MEAN_MOTION_DDOT":0}]
